[{"OBJECT_NAME":"SPIP","OBJECT_ID":"2023-174AU","EPOCH":"2026-03-09T22:52:46.383168","MEAN_MOTION":15.26695413,"ECCENTRICITY":0.00100427,"INCLINATION":97.3901,"RA_OF_ASC_NODE":146.4534,"ARG_OF_PERICENTER":168.1112,"MEAN_ANOMALY":192.0366,"EPHEMERIS_TYPE":0,"CLASSIFICATION_TYPE":"U","NORAD_CAT_ID":58298,"ELEMENT_SET_NO":999,"REV_AT_EPOCH":12963,"BSTAR":0.00025731582,"MEAN_MOTION_DOT":6.692e-5,"MEAN_MOTION_DDOT":0},{"OBJECT_NAME":"STARLINK-36217","OBJECT_ID":"2025-299U","EPOCH":"2026-03-09T07:17:44.639232","MEAN_MOTION":15.27601297,"ECCENTRICITY":0.00028018,"INCLINATION":42.9979,"RA_OF_ASC_NODE":171.4782,"ARG_OF_PERICENTER":290.6433,"MEAN_ANOMALY":69.4118,"EPHEMERIS_TYPE":0,"CLASSIFICATION_TYPE":"U","NORAD_CAT_ID":67120,"ELEMENT_SET_NO":999,"REV_AT_EPOCH":1305,"BSTAR":0.0010760864,"MEAN_MOTION_DOT":0.00029489,"MEAN_MOTION_DDOT":0}]
